{
  "type": "FeatureCollection",
  "properties": {
    "name": "Willow Springs tract (HUD approx)",
    "address": "264 County Road 1130, Willow Springs, MO",
    "acres_nominal": 119,
    "crs": "EPSG:4326",
    "notes": "Approximate public-geocode geometry for offline LAN HUD. Precise survey parcel stays off-git (farm/private/).",
    "hub": {
      "lat": 37.0457191,
      "lon": -91.9502374,
      "id": "house-hub"
    },
    "bbox": [
      -91.95608991973124,
      37.04068855742005,
      -91.94438488026877,
      37.04985133140496
    ]
  },
  "features": [
    {
      "type": "Feature",
      "properties": {
        "kind": "parcel",
        "name": "parcel outline"
      },
      "geometry": {
        "type": "Polygon",
        "coordinates": [
          [
            [
              -91.95226327221467,
              37.04949200693496
            ],
            [
              -91.94776133395987,
              37.049132682464965
            ],
            [
              -91.94483507409426,
              37.04679707340999
            ],
            [
              -91.94438488026877,
              37.043383490945025
            ],
            [
              -91.94708604322165,
              37.041047881890044
            ],
            [
              -91.95068759382549,
              37.04068855742005
            ],
            [
              -91.95428914442932,
              37.04194619306504
            ],
            [
              -91.95608991973124,
              37.045000451060005
            ],
            [
              -91.95563972590575,
              37.04823437128997
            ],
            [
              -91.95316365986562,
              37.04985133140496
            ],
            [
              -91.95226327221467,
              37.04949200693496
            ]
          ]
        ]
      }
    },
    {
      "type": "Feature",
      "properties": {
        "kind": "contour",
        "elev_ft": 1120,
        "stroke": "#1aff7a",
        "stroke-opacity": 0.605
      },
      "geometry": {
        "type": "LineString",
        "coordinates": [
          [
            -91.9520362175069,
            37.04906914893073
          ],
          [
            -91.9482834354533,
            37.04841289693661
          ],
          [
            -91.94576556923565,
            37.046611403563695
          ],
          [
            -91.94487303771508,
            37.04357830360764
          ],
          [
            -91.94754273732995,
            37.041724834053646
          ],
          [
            -91.95058949690088,
            37.04178470918459
          ],
          [
            -91.95373169222673,
            37.04246528189647
          ],
          [
            -91.95559069777325,
            37.04506175206323
          ],
          [
            -91.9546722280617,
            37.047783913544045
          ],
          [
            -91.95255732797781,
            37.04899511774531
          ],
          [
            -91.9520362175069,
            37.04906914893073
          ]
        ]
      }
    },
    {
      "type": "Feature",
      "properties": {
        "kind": "contour",
        "elev_ft": 1140,
        "stroke": "#1aff7a",
        "stroke-opacity": 0.5449999999999999
      },
      "geometry": {
        "type": "LineString",
        "coordinates": [
          [
            -91.95165207853064,
            37.04835374319238
          ],
          [
            -91.94869063350018,
            37.04785152091109
          ],
          [
            -91.94695161380446,
            37.04637474170165
          ],
          [
            -91.94622210363072,
            37.04411668548639
          ],
          [
            -91.94808664423464,
            37.04253106069251
          ],
          [
            -91.95051001436218,
            37.0426728606267
          ],
          [
            -91.95278582132273,
            37.04334605879529
          ],
          [
            -91.95433340654097,
            37.045216138729636
          ],
          [
            -91.95379310271515,
            37.047374601188025
          ],
          [
            -91.95198736632445,
            37.04819026323756
          ],
          [
            -91.95165207853064,
            37.04835374319238
          ]
        ]
      }
    },
    {
      "type": "Feature",
      "properties": {
        "kind": "contour",
        "elev_ft": 1160,
        "stroke": "#1aff7a",
        "stroke-opacity": 0.485
      },
      "geometry": {
        "type": "LineString",
        "coordinates": [
          [
            -91.95122020336683,
            37.04754943540397
          ],
          [
            -91.94911501727215,
            37.04726645210479
          ],
          [
            -91.94800069953399,
            37.0461654084365
          ],
          [
            -91.94756878259173,
            37.0446541147852
          ],
          [
            -91.94871077499891,
            37.043456202190015
          ],
          [
            -91.95043330146946,
            37.04353006357211
          ],
          [
            -91.9519366720156,
            37.04413677039262
          ],
          [
            -91.9530041084467,
            37.045379367340594
          ],
          [
            -91.9528021432783,
            37.04691321994882
          ],
          [
            -91.9514690180761,
            37.04745829307466
          ],
          [
            -91.95122020336683,
            37.04754943540397
          ]
        ]
      }
    },
    {
      "type": "Feature",
      "properties": {
        "kind": "contour",
        "elev_ft": 1180,
        "stroke": "#1aff7a",
        "stroke-opacity": 0.434
      },
      "geometry": {
        "type": "LineString",
        "coordinates": [
          [
            -91.95083843578058,
            37.04683844605167
          ],
          [
            -91.94951271138072,
            37.046718178507305
          ],
          [
            -91.94883250806235,
            37.04599943039456
          ],
          [
            -91.94864280690182,
            37.04508273374236
          ],
          [
            -91.94928603965447,
            37.044308910044464
          ],
          [
            -91.95036430817733,
            37.04430100638427
          ],
          [
            -91.95128121891332,
            37.04474711578787
          ],
          [
            -91.95189875352243,
            37.04551509727935
          ],
          [
            -91.95186555675035,
            37.04647715421612
          ],
          [
            -91.95102930632895,
            37.046837367123395
          ],
          [
            -91.95083843578058,
            37.04683844605167
          ]
        ]
      }
    },
    {
      "type": "Feature",
      "properties": {
        "kind": "contour",
        "elev_ft": 1200,
        "stroke": "#1aff7a",
        "stroke-opacity": 0.39199999999999996
      },
      "geometry": {
        "type": "LineString",
        "coordinates": [
          [
            -91.95053027410046,
            37.046264537523996
          ],
          [
            -91.94986709706043,
            37.046229611271016
          ],
          [
            -91.94951904517629,
            37.04586243963045
          ],
          [
            -91.94946335592282,
            37.04541019640998
          ],
          [
            -91.94976777358168,
            37.045022978429365
          ],
          [
            -91.95030286559548,
            37.044987576272035
          ],
          [
            -91.95076242776685,
            37.04523020418312
          ],
          [
            -91.95104076648333,
            37.04562045215289
          ],
          [
            -91.95105381683555,
            37.04609921587285
          ],
          [
            -91.95064668189754,
            37.04629705533825
          ],
          [
            -91.95053027410046,
            37.046264537523996
          ]
        ]
      }
    },
    {
      "type": "Feature",
      "properties": {
        "kind": "corridor",
        "name": "CR-1130 approach"
      },
      "geometry": {
        "type": "LineString",
        "coordinates": [
          [
            -91.95721540429493,
            37.045000451060005
          ],
          [
            -91.9547393382548,
            37.04535977553
          ],
          [
            -91.95158798147645,
            37.0457191
          ],
          [
            -91.94978720617452,
            37.045898762235
          ]
        ]
      }
    },
    {
      "type": "Feature",
      "properties": {
        "kind": "corridor",
        "name": "ridge spur"
      },
      "geometry": {
        "type": "LineString",
        "coordinates": [
          [
            -91.9479864308726,
            37.05003099363996
          ],
          [
            -91.94843662469809,
            37.04841403352497
          ],
          [
            -91.94956210926179,
            37.046437748939994
          ],
          [
            -91.9502374,
            37.0457191
          ]
        ]
      }
    },
    {
      "type": "Feature",
      "properties": {
        "kind": "corridor",
        "name": "pond draw"
      },
      "geometry": {
        "type": "LineString",
        "coordinates": [
          [
            -91.9479864308726,
            37.043922477650014
          ],
          [
            -91.94933701234905,
            37.04464112659001
          ],
          [
            -91.95046249691275,
            37.04535977553
          ]
        ]
      }
    },
    {
      "type": "Feature",
      "properties": {
        "kind": "station",
        "id": "house",
        "station_kind": "mains",
        "role": "hub observer"
      },
      "geometry": {
        "type": "Point",
        "coordinates": [
          -91.9502374,
          37.0457191
        ]
      }
    },
    {
      "type": "Feature",
      "properties": {
        "kind": "station",
        "id": "house-hub",
        "station_kind": "mains",
        "role": "XIAO + MQTT hub"
      },
      "geometry": {
        "type": "Point",
        "coordinates": [
          -91.95034994845638,
          37.045853846676245
        ]
      }
    },
    {
      "type": "Feature",
      "properties": {
        "kind": "station",
        "id": "gate-n",
        "station_kind": "solar",
        "role": "chokepoint"
      },
      "geometry": {
        "type": "Point",
        "coordinates": [
          -91.95563972590575,
          37.04535977553
        ]
      }
    },
    {
      "type": "Feature",
      "properties": {
        "kind": "station",
        "id": "ridge-2",
        "station_kind": "solar",
        "role": "LOS to road"
      },
      "geometry": {
        "type": "Point",
        "coordinates": [
          -91.94843662469809,
          37.048953020229966
        ]
      }
    },
    {
      "type": "Feature",
      "properties": {
        "kind": "station",
        "id": "pond",
        "station_kind": "solar",
        "role": "interior"
      },
      "geometry": {
        "type": "Point",
        "coordinates": [
          -91.94776133395987,
          37.04410213988501
        ]
      }
    },
    {
      "type": "Feature",
      "properties": {
        "kind": "house",
        "name": "264 CR 1130"
      },
      "geometry": {
        "type": "Point",
        "coordinates": [
          -91.9502374,
          37.0457191
        ]
      }
    }
  ]
}